County,City,ZipCode
Bergen,Alpine,7620
Bergen,Bergenfield,7621
Bergen,Bogota,7603
Bergen,Carlstadt,7072
Bergen,Cliffside Park,7010
Bergen,Closter,7624
Bergen,Cresskill,7626
Bergen,Demarest,7627
Bergen,Dumont,7628
Bergen,East Rutherford,7073
Bergen,Edgewater,7020
Bergen,Elmwood Park,7407
Bergen,Emerson,7630
Bergen,Englewood,7631
Bergen,Englewood Cliffs,7632
Bergen,Fair Lawn,7410
Bergen,Fairview,7022
Bergen,Fort Lee,7024
Bergen,Franklin Lakes,7417
Bergen,Garfield,7026
Bergen,Glen Rock,7452
Bergen,Hackensack,7601
Bergen,Hackensack,7602
Bergen,Harrington Park,7640
Bergen,Hasbrouck Heights,7604
Bergen,Haworth,7641
Bergen,Hillsdale,7642
Bergen,Ho Ho Kus,7423
Bergen,Leonia,7605
Bergen,Little Ferry,7643
Bergen,Lodi,7644
Bergen,Lyndhurst,7071
Bergen,Maywood,7607
Bergen,Midland Park,7432
Bergen,Moonachie,7074
Bergen,New Milford,7646
Bergen,North Arlington,7031
Bergen,Northvale,7647
Bergen,Norwood,7648
Bergen,Oakland,7436
Bergen,Oradell,7649
Bergen,Palisades Park,7650
Bergen,Paramus,7652
Bergen,Paramus,7653
Bergen,Ridgefield,7657
Bergen,Ridgefield Park,7660
Bergen,Ridgewood,7450
Bergen,Ridgewood,7451
Bergen,River Edge,7661
Bergen,Rochelle Park,7662
Bergen,Rutherford,7070
Bergen,Saddle Brook,7663
Bergen,South Hackensack,7606
Bergen,Teaneck,7666
Bergen,Tenafly,7670
Bergen,Teterboro,7608
Bergen,Teterboro,7699
Bergen,Township Of Washington,7676
Bergen,Wallington,7057
Bergen,Westwood,7675
Bergen,Wood Ridge,7075
Bergen,Wyckoff,7481
Essex,Belleville,7109
Essex,Bloomfield,7003
Essex,Caldwell,7006
Essex,Cedar Grove,7009
Essex,East Orange,7017
Essex,East Orange,7018
Essex,East Orange,7019
Essex,Glen Ridge,7028
Essex,Irvington,7111
Essex,Maplewood,7040
Essex,Montclair,7042
Essex,Montclair,7043
Essex,Newark,7101
Essex,Newark,7102
Essex,Newark,7103
Essex,Newark,7104
Essex,Newark,7105
Essex,Newark,7106
Essex,Newark,7107
Essex,Newark,7108
Essex,Newark,7112
Essex,Newark,7114
Essex,Newark,7175
Essex,Newark,7182
Essex,Newark,7184
Essex,Newark,7188
Essex,Newark,7189
Essex,Newark,7191
Essex,Newark,7192
Essex,Newark,7193
Essex,Newark,7195
Essex,Newark,7198
Essex,Newark,7199
Essex,Nutley,7110
Essex,Orange,7050
Essex,Orange,7051
Essex,South Orange,7079
Essex,Verona,7044
Essex,West Orange,7052
Hudson,Bayonne,7002
Hudson,Harrison,7029
Hudson,Hoboken,7030
Hudson,Jersey City,7097
Hudson,Jersey City,7302
Hudson,Jersey City,7303
Hudson,Jersey City,7304
Hudson,Jersey City,7305
Hudson,Jersey City,7306
Hudson,Jersey City,7307
Hudson,Jersey City,7308
Hudson,Jersey City,7309
Hudson,Jersey City,7310
Hudson,Jersey City,7311
Hudson,Jersey City,7395
Hudson,Jersey City,7399
Hudson,Kearny,7032
Hudson,Kearny,7099
Hudson,North Bergen,7047
Hudson,Secaucus,7094
Hudson,Secaucus,7096
Hudson,Union City,7087
Hudson,Weehawken,7086
Hudson,West New York,7093
Middlesex,Avenel,7001
Middlesex,Carteret,7008
Middlesex,Fords,8863
Middlesex,Perth Amboy,8861
Middlesex,Port Reading,7064
Middlesex,Sewaren,7077
Passaic,Clifton,7011
Passaic,Clifton,7012
Passaic,Clifton,7013
Passaic,Clifton,7014
Passaic,Clifton,7015
Passaic,Haledon,7508
Passaic,Haledon,7538
Passaic,Hawthorne,7506
Passaic,Hawthorne,7507
Passaic,Little Falls,7424
Passaic,Passaic,7055
Passaic,Paterson,7501
Passaic,Paterson,7502
Passaic,Paterson,7503
Passaic,Paterson,7504
Passaic,Paterson,7505
Passaic,Paterson,7509
Passaic,Paterson,7510
Passaic,Paterson,7513
Passaic,Paterson,7514
Passaic,Paterson,7522
Passaic,Paterson,7524
Passaic,Paterson,7533
Passaic,Paterson,7543
Passaic,Paterson,7544
Passaic,Totowa,7511
Passaic,Totowa,7512
Passaic,Wayne,7470
Passaic,Wayne,7474
Union,Elizabeth,7201
Union,Elizabeth,7202
Union,Elizabeth,7206
Union,Elizabeth,7207
Union,Elizabeth,7208
Union,Hillside,7205
Union,Linden,7036
Union,Rahway,7065
Union,Roselle,7203
Union,Roselle Park,7204
Union,Union,7083